NORAD_CAT_ID,OBJECT_NAME,OBJECT_TYPE,EPOCH,MEAN_MOTION,ECCENTRICITY,INCLINATION,RA_OF_ASC_NODE,ARG_OF_PERICENTER,MEAN_ANOMALY,BSTAR,MEAN_MOTION_DOT,MEAN_MOTION_DDOT,TLE_LINE0,TLE_LINE1,TLE_LINE2,SEMIMAJOR_AXIS,PERIOD,APOGEE,PERIGEE,DECAYED
53970.0,STARLINK-4567,PAYLOAD,2023-09-01 10:17:03,15.08785567,7.11e-05,53.2163,30.3805,316.8765,43.2172,0.00085709,0.00013359,0.0,0 STARLINK-4567,1 53970U 22125G   23244.42851289  .00013359  00000-0  85709-3 0  9993,2 53970  53.2163  30.3805 0000711 316.8765  43.2172 15.08785567 50534,6918.047,95.441,540.404,539.42,0.0
53970.0,STARLINK-4567,PAYLOAD,2023-09-01 19:49:20,15.08845054,0.0001188,53.2176,28.5907,83.0944,277.0183,0.00011478,1.54e-05,0.0,0 STARLINK-4567,1 53970U 22125G   23244.82593395  .00001540  00000-0  11478-3 0  9999,2 53970  53.2176  28.5907 0001188  83.0944 277.0183 15.08845054 50594,6917.865,95.437,540.552,538.908,0.0
53970.0,STARLINK-4567,PAYLOAD,2023-09-02 10:07:49,15.0883876,0.0001314,53.2171,25.914,79.6447,280.4693,-1.8111e-05,-5.76e-06,0.0,0 STARLINK-4567,1 53970U 22125G   23245.42209818 -.00000576  00000-0 -18111-4 0  9992,2 53970  53.2171  25.9140 0001314  79.6447 280.4693 15.08838760 50689,6917.884,95.438,540.658,538.84,0.0
53970.0,STARLINK-4567,PAYLOAD,2023-09-02 13:18:35,15.08843912,0.0001725,53.2182,25.3162,83.8691,276.2498,0.00010196,1.335e-05,0.0,0 STARLINK-4567,1 53970U 22125G   23245.55457730  .00001335  00000-0  10196-3 0  9990,2 53970  53.2182  25.3162 0001725  83.8691 276.2498 15.08843912 50640,6917.868,95.437,540.927,538.54,0.0
53970.0,STARLINK-4567,PAYLOAD,2023-09-02 16:29:21,15.08848338,0.0001761,53.217,24.7251,67.1906,292.9272,0.00012908,1.767e-05,0.0,0 STARLINK-4567,1 53970U 22125G   23245.68705468  .00001767  00000-0  12908-3 0  9990,2 53970  53.2170  24.7251 0001761  67.1906 292.9272 15.08848338 50724,6917.855,95.437,540.938,538.502,0.0
53970.0,STARLINK-4567,PAYLOAD,2023-09-02 19:40:07,15.08855181,0.0001701,53.2174,24.1292,69.3032,290.8143,0.00024188,3.565e-05,0.0,0 STARLINK-4567,1 53970U 22125G   23245.81953108  .00003565  00000-0  24188-3 0  9992,2 53970  53.2174  24.1292 0001701  69.3032 290.8143 15.08855181 50688,6917.834,95.437,540.876,538.522,0.0
53970.0,STARLINK-4567,PAYLOAD,2023-09-03 11:33:59,15.08836329,0.0001128,53.2172,21.1575,96.6723,263.4398,-6.3308e-05,-1.295e-05,0.0,0 STARLINK-4567,1 53970U 22125G   23246.48193621 -.00001295  00000-0 -63308-4 0  9990,2 53970  53.2172  21.1575 0001128  96.6723 263.4398 15.08836329 50782,6917.892,95.438,540.537,538.976,0.0
53970.0,STARLINK-4567,PAYLOAD,2023-09-03 16:20:08,15.08840519,0.0001118,53.2171,20.2657,98.5914,261.5205,5.0337e-05,5.13e-06,0.0,0 STARLINK-4567,1 53970U 22125G   23246.68065516  .00000513  00000-0  50337-4 0  9991,2 53970  53.2171  20.2657 0001118  98.5914 261.5205 15.08840519 50876,6917.879,95.438,540.517,538.97,0.0
53970.0,STARLINK-4567,PAYLOAD,2023-09-04 11:24:46,15.08831508,0.0001174,53.2171,16.698,97.5518,262.5608,-0.00011544,-2.124e-05,0.0,0 STARLINK-4567,1 53970U 22125G   23247.47554183 -.00002124  00000-0 -11544-3 0  9990,2 53970  53.2171  16.6980 0001174  97.5518 262.5608 15.08831508 50938,6917.906,95.438,540.584,538.959,0.0
53970.0,STARLINK-4567,PAYLOAD,2023-09-05 01:43:14,15.08838986,0.000118,53.2175,14.0212,91.07,269.0427,1.2119e-05,-9.5e-07,0.0,0 STARLINK-4567,1 53970U 22125G   23248.07170035 -.00000095  00000-0  12119-4 0  9991,2 53970  53.2175  14.0212 0001180  91.0700 269.0427 15.08838986 51086,6917.883,95.438,540.565,538.932,0.0
53970.0,STARLINK-4567,PAYLOAD,2023-09-05 11:15:33,15.08857773,0.0001503,53.2179,12.237,84.4164,275.7,-0.00022003,-3.79e-05,0.0,0 STARLINK-4567,1 53970U 22125G   23248.46913650 -.00003790  00000-0 -22003-3 0  9990,2 53970  53.2179  12.2370 0001503  84.4164 275.7000 15.08857773 51147,6917.826,95.436,540.731,538.651,0.0
53970.0,STARLINK-4567,PAYLOAD,2023-09-06 11:06:21,15.08836134,0.0001239,53.2182,7.7764,91.3925,268.7209,0.00015276,2.144e-05,0.0,0 STARLINK-4567,1 53970U 22125G   23249.46274637  .00002144  00000-0  15276-3 0  9990,2 53970  53.2182   7.7764 0001239  91.3925 268.7209 15.08836134 51236,6917.892,95.438,540.614,538.9,0.0
53970.0,STARLINK-4567,PAYLOAD,2023-09-06 17:27:53,15.08846971,0.0001184,53.2188,6.5854,98.5043,261.6083,0.00016102,2.276e-05,0.0,0 STARLINK-4567,1 53970U 22125G   23249.72769864  .00002276  00000-0  16102-3 0  9995,2 53970  53.2188   6.5854 0001184  98.5043 261.6083 15.08846971 51331,6917.859,95.437,540.543,538.905,0.0
53970.0,STARLINK-4567,PAYLOAD,2023-09-07 01:24:49,15.08842285,0.0001171,53.2184,5.1006,92.9128,267.1998,0.0001176,1.584e-05,0.0,0 STARLINK-4567,1 53970U 22125G   23250.05890250  .00001584  00000-0  11760-3 0  9993,2 53970  53.2184   5.1006 0001171  92.9128 267.1998 15.08842285 51384,6917.873,95.437,540.548,538.928,0.0
53970.0,STARLINK-4567,PAYLOAD,2023-09-07 09:21:44,15.08842598,0.0001307,53.2182,3.6129,96.2998,263.8143,9.0494e-05,1.153e-05,0.0,0 STARLINK-4567,1 53970U 22125G   23250.39010255  .00001153  00000-0  90494-4 0  9993,2 53970  53.2182   3.6129 0001307  96.2998 263.8143 15.08842598 51375,6917.872,95.437,540.642,538.833,0.0
53970.0,STARLINK-4567,PAYLOAD,2023-09-07 17:18:39,15.08851734,0.000121,53.2186,2.1257,101.8385,258.2743,0.00010436,1.374e-05,0.0,0 STARLINK-4567,1 53970U 22125G   23250.72129443  .00001374  00000-0  10436-3 0  9992,2 53970  53.2186   2.1257 0001210 101.8385 258.2743 15.08851734 51489,6917.845,95.437,540.547,538.872,0.0
53970.0,STARLINK-4567,PAYLOAD,2023-09-08 01:15:35,15.0884763,0.0001279,53.2183,0.6385,92.5566,267.5573,1.3824e-05,-6.8e-07,0.0,0 STARLINK-4567,1 53970U 22125G   23251.05249948 -.00000068  00000-0  13824-4 0  9997,2 53970  53.2183   0.6385 0001279  92.5566 267.5573 15.08847630 51533,6917.857,95.437,540.607,538.837,0.0
53970.0,STARLINK-4567,PAYLOAD,2023-09-08 10:47:55,15.08837346,0.000184,53.2166,358.8522,104.2782,255.8415,1.5632e-05,-3.9e-07,0.0,0 STARLINK-4567,1 53970U 22125G   23251.44994835 -.00000039  00000-0  15632-4 0  9999,2 53970  53.2166 358.8522 0001840 104.2782 255.8415 15.08837346 51594,6917.889,95.438,541.026,538.481,0.0
53970.0,STARLINK-4567,PAYLOAD,2023-09-08 13:58:41,15.0884108,0.0001409,53.2185,358.2587,104.835,255.2798,1.0564e-05,-1.2e-06,0.0,0 STARLINK-4567,1 53970U 22125G   23251.58242532 -.00000120  00000-0  10564-4 0  9994,2 53970  53.2185 358.2587 0001409 104.8350 255.2798 15.08841080 51552,6917.877,95.437,540.717,538.767,0.0
53970.0,STARLINK-4567,PAYLOAD,2023-09-09 13:49:28,15.08842857,0.0001312,53.2185,353.8019,86.7647,273.3495,0.00010685,1.413e-05,0.0,0 STARLINK-4567,1 53970U 22125G   23252.57602430  .00001413  00000-0  10685-3 0  9999,2 53970  53.2185 353.8019 0001312  86.7647 273.3495 15.08842857 51708,6917.872,95.437,540.644,538.829,0.0
53970.0,STARLINK-4567,PAYLOAD,2023-09-10 12:04:52,15.08851117,0.0001562,53.2178,349.6385,78.6258,281.4909,9.6687e-05,1.252e-05,0.0,0 STARLINK-4567,1 53970U 22125G   23253.50338042  .00001252  00000-0  96687-4 0  9996,2 53970  53.2178 349.6385 0001562  78.6258 281.4909 15.08851117 51848,6917.846,95.437,540.792,538.631,0.0
53970.0,STARLINK-4567,PAYLOAD,2023-09-11 10:20:16,15.08836278,0.0001294,53.2184,345.4756,77.5871,282.5266,-2.3013e-07,-2.92e-06,0.0,0 STARLINK-4567,1 53970U 22125G   23254.43074828 -.00000292  00000-0 -23013-6 0  9998,2 53970  53.2184 345.4756 0001294  77.5871 282.5266 15.08836278 52044,6917.892,95.438,540.652,538.862,0.0
53970.0,STARLINK-4567,PAYLOAD,2023-09-11 13:31:03,15.08840434,0.0001296,53.2189,344.8812,66.3776,293.7352,9.6007e-05,1.24e-05,0.0,0 STARLINK-4567,1 53970U 22125G   23254.56322959  .00001240  00000-0  96007-4 0  9996,2 53970  53.2189 344.8812 0001296  66.3776 293.7352 15.08840434 52002,6917.879,95.438,540.641,538.848,0.0
53970.0,STARLINK-4567,PAYLOAD,2023-09-12 10:11:03,15.08846298,0.0001256,53.2185,341.0148,86.3364,273.7772,0.00012263,1.665e-05,0.0,0 STARLINK-4567,1 53970U 22125G   23255.42434330  .00001665  00000-0  12263-3 0  9991,2 53970  53.2185 341.0148 0001256  86.3364 273.7772 15.08846298 52198,6917.861,95.437,540.595,538.857,0.0
53970.0,STARLINK-4567,PAYLOAD,2023-09-12 13:21:48,15.08856093,0.0001224,53.2184,340.4197,90.1144,269.9988,9.8167e-05,1.275e-05,0.0,0 STARLINK-4567,1 53970U 22125G   23255.55681687  .00001275  00000-0  98167-4 0  9999,2 53970  53.2184 340.4197 0001224  90.1144 269.9988 15.08856093 52154,6917.831,95.437,540.543,538.849,0.0
53970.0,STARLINK-4567,PAYLOAD,2023-09-12 22:54:08,15.08845655,0.0001253,53.2184,338.6347,93.559,266.5545,0.00015357,2.157e-05,0.0,0 STARLINK-4567,1 53970U 22125G   23255.95426125  .00002157  00000-0  15357-3 0  9996,2 53970  53.2184 338.6347 0001253  93.5590 266.5545 15.08845655 52271,6917.863,95.437,540.595,538.861,0.0
53970.0,STARLINK-4567,PAYLOAD,2023-09-13 13:12:35,15.0885259,0.0001355,53.2187,335.9594,90.3291,269.7857,0.00016257,2.301e-05,0.0,0 STARLINK-4567,1 53970U 22125G   23256.55041511  .00002301  00000-0  16257-3 0  9996,2 53970  53.2187 335.9594 0001355  90.3291 269.7857 15.08852590 52305,6917.842,95.437,540.644,538.77,0.0
53970.0,STARLINK-4567,PAYLOAD,2023-09-13 22:44:55,15.08837434,0.0001559,53.2177,334.1758,77.9704,282.1463,-1.4118e-05,-5.13e-06,0.0,0 STARLINK-4567,1 53970U 22125G   23256.94786528 -.00000513  00000-0 -14118-4 0  9993,2 53970  53.2177 334.1758 0001559  77.9704 282.1463 15.08837434 52428,6917.888,95.438,540.832,538.675,0.0
53970.0,STARLINK-4567,PAYLOAD,2023-09-14 09:52:38,15.08826091,0.0001602,53.2173,332.0936,90.4332,269.6844,-0.0001385,-2.491e-05,0.0,0 STARLINK-4567,1 53970U 22125G   23257.41155324 -.00002491  00000-0 -13850-3 0  9998,2 53970  53.2173 332.0936 0001602  90.4332 269.6844 15.08826091 52492,6917.923,95.438,540.896,538.68,0.0
53970.0,STARLINK-4567,PAYLOAD,2023-09-14 11:28:01,15.08829832,0.000149,53.2188,331.7941,94.2016,265.9147,-0.00020343,-3.523e-05,0.0,0 STARLINK-4567,1 53970U 22125G   23257.47779167 -.00003523  00000-0 -20343-3 0  9993,2 53970  53.2188 331.7941 0001490  94.2016 265.9147 15.08829832 52442,6917.911,95.438,540.807,538.746,0.0
